{
  "type": "FeatureCollection",
  "features": [
    {
      "type": "Feature",
      "properties": {
        "norad_id": 35288,
        "name": "COSMOS 2251 DEB",
        "group": "cosmos-2251-debris",
        "lat": -72.10460065516799,
        "lon": -32.549340937722505,
        "alt_km": 655.7704326309304,
        "timestamp": "2025-12-04T19:33:59.995153+00:00",
        "meta_object_name": "COSMOS 2251 DEB",
        "meta_object_id": "1993-036AJS",
        "meta_epoch": "2025-12-03T20:59:56.516352",
        "meta_mean_motion": 14.65299775,
        "meta_eccentricity": 0.0039601,
        "meta_inclination": 73.9514,
        "meta_ra_of_asc_node": 32.3261,
        "meta_arg_of_pericenter": 266.9195,
        "meta_mean_anomaly": 92.7441,
        "meta_ephemeris_type": 0,
        "meta_classification_type": "U",
        "meta_norad_cat_id": 35288,
        "meta_element_set_no": 999,
        "meta_rev_at_epoch": 87748,
        "meta_bstar": 0.002248,
        "meta_mean_motion_dot": 0.00012258,
        "meta_mean_motion_ddot": 0,
        "tle_line1": "1 35288U 93036AJS 25337.87495968  .00012258  00000+0  22480-2 0  9998",
        "tle_line2": "2 35288  73.9514  32.3261 0039601 266.9195  92.7441 14.65299775877487"
      },
      "geometry": {
        "type": "Point",
        "coordinates": [
          -32.549340937722505,
          -72.10460065516799
        ]
      }
    },
    {
      "type": "Feature",
      "properties": {
        "norad_id": 35290,
        "name": "COSMOS 2251 DEB",
        "group": "cosmos-2251-debris",
        "lat": 42.79241571339788,
        "lon": -120.3197816692468,
        "alt_km": 624.4526895550716,
        "timestamp": "2025-12-04T19:33:59.995162+00:00",
        "meta_object_name": "COSMOS 2251 DEB",
        "meta_object_id": "1993-036AJU",
        "meta_epoch": "2025-12-01T06:35:33.142560",
        "meta_mean_motion": 14.79807104,
        "meta_eccentricity": 0.00037082,
        "meta_inclination": 74.0051,
        "meta_ra_of_asc_node": 82.0624,
        "meta_arg_of_pericenter": 206.8807,
        "meta_mean_anomaly": 153.2178,
        "meta_ephemeris_type": 0,
        "meta_classification_type": "U",
        "meta_norad_cat_id": 35290,
        "meta_element_set_no": 999,
        "meta_rev_at_epoch": 87788,
        "meta_bstar": 0.002855926,
        "meta_mean_motion_dot": 0.00021548,
        "meta_mean_motion_ddot": 0,
        "tle_line1": "1 35290U 93036AJU 25335.27468915  .00021548  00000+0  28559-2 0  9990",
        "tle_line2": "2 35290  74.0051  82.0624 0003708 206.8807 153.2178 14.79807104877885"
      },
      "geometry": {
        "type": "Point",
        "coordinates": [
          -120.3197816692468,
          42.79241571339788
        ]
      }
    },
    {
      "type": "Feature",
      "properties": {
        "norad_id": 35432,
        "name": "COSMOS 2251 DEB",
        "group": "cosmos-2251-debris",
        "lat": -72.69910379023219,
        "lon": -80.87282560771058,
        "alt_km": 511.9827168928132,
        "timestamp": "2025-12-04T19:33:59.995171+00:00",
        "meta_object_name": "COSMOS 2251 DEB",
        "meta_object_id": "1993-036AKA",
        "meta_epoch": "2025-12-02T12:41:27.608064",
        "meta_mean_motion": 15.19283243,
        "meta_eccentricity": 0.00119971,
        "meta_inclination": 74.023,
        "meta_ra_of_asc_node": 37.0177,
        "meta_arg_of_pericenter": 353.9321,
        "meta_mean_anomaly": 6.1728,
        "meta_ephemeris_type": 0,
        "meta_classification_type": "U",
        "meta_norad_cat_id": 35432,
        "meta_element_set_no": 999,
        "meta_rev_at_epoch": 87348,
        "meta_bstar": 0.0074321278,
        "meta_mean_motion_dot": 0.00160594,
        "meta_mean_motion_ddot": 0,
        "tle_line1": "1 35432U 93036AKA 25336.52879176  .00160594  00000+0  74321-2 0  9995",
        "tle_line2": "2 35432  74.0230  37.0177 0011997 353.9321   6.1728 15.19283243873485"
      },
      "geometry": {
        "type": "Point",
        "coordinates": [
          -80.87282560771058,
          -72.69910379023219
        ]
      }
    },
    {
      "type": "Feature",
      "properties": {
        "norad_id": 35433,
        "name": "COSMOS 2251 DEB",
        "group": "cosmos-2251-debris",
        "lat": 37.18288631993903,
        "lon": 5.513529163641526,
        "alt_km": 755.2001018782566,
        "timestamp": "2025-12-04T19:33:59.995180+00:00",
        "meta_object_name": "COSMOS 2251 DEB",
        "meta_object_id": "1993-036AKB",
        "meta_epoch": "2025-11-29T08:56:22.068960",
        "meta_mean_motion": 14.34715508,
        "meta_eccentricity": 0.00253594,
        "meta_inclination": 74.0352,
        "meta_ra_of_asc_node": 2.9393,
        "meta_arg_of_pericenter": 62.2545,
        "meta_mean_anomaly": 316.1289,
        "meta_ephemeris_type": 0,
        "meta_classification_type": "U",
        "meta_norad_cat_id": 35433,
        "meta_element_set_no": 999,
        "meta_rev_at_epoch": 86389,
        "meta_bstar": 0.00023326055,
        "meta_mean_motion_dot": 6.37e-06,
        "meta_mean_motion_ddot": 0,
        "tle_line1": "1 35433U 93036AKB 25333.37247765  .00000637  00000+0  23326-3 0  9990",
        "tle_line2": "2 35433  74.0352   2.9393 0025359  62.2545 316.1289 14.34715508863897"
      },
      "geometry": {
        "type": "Point",
        "coordinates": [
          5.513529163641526,
          37.18288631993903
        ]
      }
    },
    {
      "type": "Feature",
      "properties": {
        "norad_id": 35434,
        "name": "COSMOS 2251 DEB",
        "group": "cosmos-2251-debris",
        "lat": -30.272011428228037,
        "lon": 57.54564653014757,
        "alt_km": 809.8675045371738,
        "timestamp": "2025-12-04T19:33:59.995189+00:00",
        "meta_object_name": "COSMOS 2251 DEB",
        "meta_object_id": "1993-036AKC",
        "meta_epoch": "2025-11-30T00:02:53.789280",
        "meta_mean_motion": 14.25623606,
        "meta_eccentricity": 0.00876191,
        "meta_inclination": 74.0414,
        "meta_ra_of_asc_node": 236.6139,
        "meta_arg_of_pericenter": 309.9857,
        "meta_mean_anomaly": 49.362,
        "meta_ephemeris_type": 0,
        "meta_classification_type": "U",
        "meta_norad_cat_id": 35434,
        "meta_element_set_no": 999,
        "meta_rev_at_epoch": 85936,
        "meta_bstar": 0.00077223856,
        "meta_mean_motion_dot": 1.879e-05,
        "meta_mean_motion_ddot": 0,
        "tle_line1": "1 35434U 93036AKC 25334.00201145  .00001879  00000+0  77224-3 0  9999",
        "tle_line2": "2 35434  74.0414 236.6139 0087619 309.9857  49.3620 14.25623606859363"
      },
      "geometry": {
        "type": "Point",
        "coordinates": [
          57.54564653014757,
          -30.272011428228037
        ]
      }
    },
    {
      "type": "Feature",
      "properties": {
        "norad_id": 35435,
        "name": "COSMOS 2251 DEB",
        "group": "cosmos-2251-debris",
        "lat": -13.092745149859766,
        "lon": 115.83267910218295,
        "alt_km": 644.3246363479702,
        "timestamp": "2025-12-04T19:33:59.995198+00:00",
        "meta_object_name": "COSMOS 2251 DEB",
        "meta_object_id": "1993-036AKD",
        "meta_epoch": "2025-12-04T04:10:55.486848",
        "meta_mean_motion": 14.78004381,
        "meta_eccentricity": 0.00092368,
        "meta_inclination": 74.0098,
        "meta_ra_of_asc_node": 120.9168,
        "meta_arg_of_pericenter": 212.0593,
        "meta_mean_anomaly": 324.9508,
        "meta_ephemeris_type": 0,
        "meta_classification_type": "U",
        "meta_norad_cat_id": 35435,
        "meta_element_set_no": 999,
        "meta_rev_at_epoch": 87412,
        "meta_bstar": 0.0049222174,
        "meta_mean_motion_dot": 0.00035708,
        "meta_mean_motion_ddot": 0,
        "tle_line1": "1 35435U 93036AKD 25338.17425332  .00035708  00000+0  49222-2 0  9992",
        "tle_line2": "2 35435  74.0098 120.9168 0009236 212.0593 324.9508 14.78004381874128"
      },
      "geometry": {
        "type": "Point",
        "coordinates": [
          115.83267910218295,
          -13.092745149859766
        ]
      }
    },
    {
      "type": "Feature",
      "properties": {
        "norad_id": 35439,
        "name": "COSMOS 2251 DEB",
        "group": "cosmos-2251-debris",
        "lat": -9.452553154625186,
        "lon": -28.94808768459115,
        "alt_km": 1032.5762000438544,
        "timestamp": "2025-12-04T19:33:59.995207+00:00",
        "meta_object_name": "COSMOS 2251 DEB",
        "meta_object_id": "1993-036AKH",
        "meta_epoch": "2025-12-03T18:34:55.041888",
        "meta_mean_motion": 13.92746619,
        "meta_eccentricity": 0.02415919,
        "meta_inclination": 74.0184,
        "meta_ra_of_asc_node": 150.1,
        "meta_arg_of_pericenter": 321.3614,
        "meta_mean_anomaly": 52.9167,
        "meta_ephemeris_type": 0,
        "meta_classification_type": "U",
        "meta_norad_cat_id": 35439,
        "meta_element_set_no": 999,
        "meta_rev_at_epoch": 83836,
        "meta_bstar": 0.0019584258,
        "meta_mean_motion_dot": 3.195e-05,
        "meta_mean_motion_ddot": 0,
        "tle_line1": "1 35439U 93036AKH 25337.77424817  .00003195  00000+0  19584-2 0  9991",
        "tle_line2": "2 35439  74.0184 150.1000 0241591 321.3614  52.9167 13.92746619838365"
      },
      "geometry": {
        "type": "Point",
        "coordinates": [
          -28.94808768459115,
          -9.452553154625186
        ]
      }
    }
  ]
}